OBJECT_NAME,OBJECT_ID,EPOCH,MEAN_MOTION,ECCENTRICITY,INCLINATION,RA_OF_ASC_NODE,ARG_OF_PERICENTER,MEAN_ANOMALY,EPHEMERIS_TYPE,CLASSIFICATION_TYPE,NORAD_CAT_ID,ELEMENT_SET_NO,REV_AT_EPOCH,BSTAR,MEAN_MOTION_DOT,MEAN_MOTION_DDOT
STARLINK-37265,2026-135C,2026-06-25T06:00:02.000160,15.80828784,.0001221,97.2840,203.7132,88.5269,247.8566,0,U,69548,999,261,-.19162072E-3,-.36713E-3,0
STARLINK-37871,2026-135D,2026-06-25T06:00:02.000160,15.80829220,.00012234,97.2840,203.7160,102.2780,239.4112,0,U,69549,999,261,-.23112562E-3,-.44216E-3,0
STARLINK-37865,2026-135E,2026-06-25T06:00:02.000160,15.80835342,.00009658,97.2841,203.7195,105.7201,244.1781,0,U,69550,999,261,-.2417617E-3,-.46245E-3,0
STARLINK-37862,2026-135F,2026-06-25T06:00:02.000160,15.80815947,.00008005,97.2838,203.7263,102.1269,263.7135,0,U,69551,999,261,-.49243019E-4,-.9563E-4,0
STARLINK-37861,2026-135G,2026-06-25T06:00:02.000160,15.80836654,.00013564,97.2840,203.7310,79.6028,297.0552,0,U,69552,999,261,-.22785122E-3,-.4361E-3,0
STARLINK-37859,2026-135H,2026-06-25T06:00:02.000160,15.80827540,.00012595,97.2839,203.7331,86.2999,295.6840,0,U,69553,999,261,-.13527971E-3,-.25991E-3,0
STARLINK-37860,2026-135J,2026-06-25T06:00:02.000160,15.80841759,.0001285,97.2839,203.7338,89.1380,294.4054,0,U,69554,999,261,-.27798318E-3,-.53128E-3,0
STARLINK-37858,2026-135K,2026-06-25T06:00:02.000160,15.80826841,.0000914,97.2835,203.7387,79.8216,314.0480,0,U,69555,999,261,-.12742319E-3,-.24492E-3,0
STARLINK-37927,2026-135L,2026-06-25T06:00:02.000160,15.80828945,.00007929,97.2835,203.7393,80.8856,314.3513,0,U,69556,999,261,-.15712259E-3,-.30151E-3,0
STARLINK-37929,2026-135M,2026-06-25T06:00:02.000160,15.80849992,.00014081,97.2837,203.7409,91.8400,308.1435,0,U,69557,999,261,-.43948375E-3,-.83653E-3,0
STARLINK-37954,2026-135N,2026-06-25T06:00:02.000160,15.80821486,.00008555,97.2834,203.7443,97.3717,309.5589,0,U,69558,999,261,-.11155014E-3,-.21461E-3,0
STARLINK-37958,2026-135P,2026-06-25T06:00:02.000160,15.80825180,.00008816,97.2833,203.7508,87.0077,333.9377,0,U,69559,999,261,-.91895709E-4,-.17715E-3,0
STARLINK-37950,2026-135Q,2026-06-25T06:00:02.000160,15.80823232,.00011958,97.2833,203.7506,93.3636,328.4069,0,U,69560,999,261,-.14503204E-3,-.27843E-3,0
STARLINK-37952,2026-135R,2026-06-25T06:00:02.000160,15.80834045,.00013746,97.2835,203.7540,86.7015,343.0173,0,U,69561,999,261,-.17102328E-3,-.32805E-3,0
STARLINK-37935,2026-135S,2026-06-25T06:00:02.000160,15.80850661,.00006272,97.2832,203.7564,93.8973,340.2037,0,U,69562,999,261,-.31140937E-3,-.59477E-3,0
STARLINK-37936,2026-135T,2026-06-25T06:00:02.000160,15.80817973,.00012202,97.2834,203.7731,90.6352,23.3940,0,U,69563,999,261,-.66314424E-4,-.12826E-3,0
STARLINK-37932,2026-135U,2026-06-25T06:00:02.000160,15.80812457,.00012115,97.2833,203.7740,89.7124,26.3545,0,U,69564,999,261,-.85403136E-4,-.16467E-3,0
STARLINK-37916,2026-135V,2026-06-25T06:00:02.000160,15.80823557,.00011188,97.2831,203.7755,87.1817,31.9927,0,U,69565,999,261,-.12504256E-3,-.24035E-3,0
STARLINK-37909,2026-135W,2026-06-25T06:00:02.000160,15.80781488,.00010721,97.2830,203.7916,84.0789,71.0062,0,U,69566,999,261,.36314039E-3,.69864E-3,0
STARLINK-37934,2026-135X,2026-06-25T06:00:02.000160,15.80818189,.00013008,97.2829,203.7837,91.1381,45.7092,0,U,69567,999,261,.27382426E-4,.5107E-4,0
STARLINK-37938,2026-135Y,2026-06-25T06:00:02.000160,15.80836138,.00007236,97.2831,203.7896,94.6166,56.1283,0,U,69568,999,261,-.207186E-3,-.39682E-3,0
STARLINK-37924,2026-135Z,2026-06-25T06:00:02.000160,15.80996726,.00014167,97.2828,203.7956,97.2625,69.1561,0,U,69569,999,261,-.1364011E-2,-.256025E-2,0
SHIJIAN-31 (SJ-31),2026-136A,2026-06-24T18:40:01.881984,1.92222602,.69411464,63.4756,355.2957,171.7615,212.4716,0,U,69570,999,23,0,.236E-5,0
CZ-3B R/B,2026-136B,2026-06-25T02:46:17.556672,2.27191380,.7342066,63.4386,354.4211,171.4332,217.3676,0,U,69571,999,21,.28046168E-3,.20404E-2,.4991574E-5
GUOWANG OBJECT A,2026-137A,2026-06-24T15:01:29.887968,13.91753886,.0012385,50.0003,225.7306,251.0733,108.8824,0,U,69572,999,105,.17258927E-3,.74E-6,0
GUOWANG OBJECT B,2026-137B,2026-06-23T20:03:42.199776,13.91680979,.00122169,49.9996,228.8805,246.1111,113.8509,0,U,69573,999,95,.11551312E-3,.1E-7,0
GUOWANG OBJECT C,2026-137C,2026-06-24T08:06:35.923392,13.91926960,.00117555,49.9965,226.8623,249.2244,110.7396,0,U,69574,999,102,.14001882E-3,.33E-6,0
GUOWANG OBJECT D,2026-137D,2026-06-24T14:59:53.585664,13.91533849,.00110417,49.9951,225.7140,249.3050,110.6666,0,U,69575,999,106,.11431407E-3,-.1E-7,0
GUOWANG OBJECT E,2026-137E,2026-06-24T20:09:37.738368,13.92014536,.00110965,50.0009,224.8678,252.8390,107.1295,0,U,69576,999,109,.10430353E-3,-.13E-6,0
GUOWANG OBJECT F,2026-137F,2026-06-25T08:12:15.965280,13.92131584,.00105728,50.0002,222.8556,255.9867,103.9857,0,U,69577,999,116,.11444515E-3,.1E-7,0
