{"format":"tle-catalog-v1","generatedAt":"2026-06-25T16:01:17.978Z","count":6895,"entries":[{"name":"CZ-3B R/B","line1":"1 69571U 26136B   26176.11548098  .00204040  49916-5  28046-3 0  9991","line2":"2 69571  63.4386 354.4211 7342066 171.4332 217.3676  2.27191380   217"},{"name":"GUOWANG OBJECT A","line1":"1 69572U 26137A   26175.62604037  .00000074  00000+0  17259-3 0  9994","line2":"2 69572  50.0003 225.7306 0012385 251.0733 108.8824 13.91753886  1052"},{"name":"GUOWANG OBJECT B","line1":"1 69573U 26137B   26174.83590509  .00000001  00000+0  11551-3 0  9994","line2":"2 69573  49.9996 228.8805 0012216 246.1111 113.8509 13.91680979   953"},{"name":"GUOWANG OBJECT C","line1":"1 69574U 26137C   26175.33791578  .00000033  00000+0  14002-3 0  9999","line2":"2 69574  49.9965 226.8623 0011755 249.2244 110.7396 13.91926960  1026"},{"name":"GUOWANG OBJECT D","line1":"1 69575U 26137D   26175.62492576 -.00000001  00000+0  11431-3 0  9997","line2":"2 69575  49.9951 225.7140 0011041 249.3050 110.6666 13.91533849  1061"},{"name":"GUOWANG OBJECT E","line1":"1 69576U 26137E   26175.84002012 -.00000013  00000+0  10430-3 0  9995","line2":"2 69576  50.0009 224.8678 0011096 252.8390 107.1295 13.92014536  1091"},{"name":"GUOWANG OBJECT F","line1":"1 69577U 26137F   26176.34185145  .00000001  00000+0  11445-3 0  9994","line2":"2 69577  50.0002 222.8556 0010572 255.9867 103.9857 13.92131584  1168"},{"name":"SHIJIAN-31 (SJ-31)","line1":"1 69570U 26136A   26175.77779956  .00000236  00000+0  00000+0 0  9992","line2":"2 69570  63.4756 355.2957 6941146 171.7615 212.4716  1.92222602   239"},{"name":"STARLINK-37265","line1":"1 69548U 26135C   26176.25002315 -.00036713  00000+0 -19162-3 0  9992","line2":"2 69548  97.2840 203.7132 0001221  88.5269 247.8566 15.80828784  2614"},{"name":"STARLINK-37858","line1":"1 69555U 26135K   26176.25002315 -.00024492  00000+0 -12742-3 0  9998","line2":"2 69555  97.2835 203.7387 0000914  79.8216 314.0480 15.80826841  2615"},{"name":"STARLINK-37859","line1":"1 69553U 26135H   26176.25002315 -.00025991  00000+0 -13528-3 0  9994","line2":"2 69553  97.2839 203.7331 0001259  86.2999 295.6840 15.80827540  2610"},{"name":"STARLINK-37860","line1":"1 69554U 26135J   26176.25002315 -.00053128  00000+0 -27798-3 0  9992","line2":"2 69554  97.2839 203.7338 0001285  89.1380 294.4054 15.80841759  2615"},{"name":"STARLINK-37861","line1":"1 69552U 26135G   26176.25002315 -.00043610  00000+0 -22785-3 0  9996","line2":"2 69552  97.2840 203.7310 0001356  79.6028 297.0552 15.80836654  2617"},{"name":"STARLINK-37862","line1":"1 69551U 26135F   26176.25002315 -.00009563  00000+0 -49243-4 0  9993","line2":"2 69551  97.2838 203.7263 0000800 102.1269 263.7135 15.80815947  2611"},{"name":"STARLINK-37865","line1":"1 69550U 26135E   26176.25002315 -.00046245  00000+0 -24176-3 0  9997","line2":"2 69550  97.2841 203.7195 0000965 105.7201 244.1781 15.80835342  2616"},{"name":"STARLINK-37871","line1":"1 69549U 26135D   26176.25002315 -.00044216  00000+0 -23113-3 0  9991","line2":"2 69549  97.2840 203.7160 0001223 102.2780 239.4112 15.80829220  2610"},{"name":"STARLINK-37909","line1":"1 69566U 26135W   26176.25002315  .00069864  00000+0  36314-3 0  9991","line2":"2 69566  97.2830 203.7916 0001072  84.0789  71.0062 15.80781488  2612"},{"name":"STARLINK-37916","line1":"1 69565U 26135V   26176.25002315 -.00024035  00000+0 -12504-3 0  9998","line2":"2 69565  97.2831 203.7755 0001118  87.1817  31.9927 15.80823557  2619"},{"name":"STARLINK-37924","line1":"1 69569U 26135Z   26176.25002315 -.00256025  00000+0 -13640-2 0  9999","line2":"2 69569  97.2828 203.7956 0001416  97.2625  69.1561 15.80996726  2618"},{"name":"STARLINK-37927","line1":"1 69556U 26135L   26176.25002315 -.00030151  00000+0 -15712-3 0  9998","line2":"2 69556  97.2835 203.7393 0000792  80.8856 314.3513 15.80828945  2616"},{"name":"STARLINK-37929","line1":"1 69557U 26135M   26176.25002315 -.00083653  00000+0 -43948-3 0  9996","line2":"2 69557  97.2837 203.7409 0001408  91.8400 308.1435 15.80849992  2618"},{"name":"STARLINK-37932","line1":"1 69564U 26135U   26176.25002315 -.00016467  00000+0 -85403-4 0  9996","line2":"2 69564  97.2833 203.7740 0001211  89.7124  26.3545 15.80812457  2618"},{"name":"STARLINK-37934","line1":"1 69567U 26135X   26176.25002315  .00005107  00000+0  27382-4 0  9998","line2":"2 69567  97.2829 203.7837 0001300  91.1381  45.7092 15.80818189  2614"},{"name":"STARLINK-37935","line1":"1 69562U 26135S   26176.25002315 -.00059477  00000+0 -31141-3 0  9991","line2":"2 69562  97.2832 203.7564 0000627  93.8973 340.2037 15.80850661  2610"},{"name":"STARLINK-37936","line1":"1 69563U 26135T   26176.25002315 -.00012826  00000+0 -66314-4 0  9990","line2":"2 69563  97.2834 203.7731 0001220  90.6352  23.3940 15.80817973  2616"},{"name":"STARLINK-37938","line1":"1 69568U 26135Y   26176.25002315 -.00039682  00000+0 -20719-3 0  9992","line2":"2 69568  97.2831 203.7896 0000723  94.6166  56.1283 15.80836138  2612"},{"name":"STARLINK-37950","line1":"1 69560U 26135Q   26176.25002315 -.00027843  00000+0 -14503-3 0  9994","line2":"2 69560  97.2833 203.7506 0001195  93.3636 328.4069 15.80823232  2614"},{"name":"STARLINK-37952","line1":"1 69561U 26135R   26176.25002315 -.00032805  00000+0 -17102-3 0  9997","line2":"2 69561  97.2835 203.7540 0001374  86.7015 343.0173 15.80834045  2614"},{"name":"STARLINK-37954","line1":"1 69558U 26135N   26176.25002315 -.00021461  00000+0 -11155-3 0  9991","line2":"2 69558  97.2834 203.7443 0000855  97.3717 309.5589 15.80821486  2614"},{"name":"STARLINK-37958","line1":"1 69559U 26135P   26176.25002315 -.00017715  00000+0 -91896-4 0  9990","line2":"2 69559  97.2833 203.7508 0000881  87.0077 333.9377 15.80825180  2611"}]}